LANDSAT 8               
1 39084U 13008A   20137.81030600 -.00000851  00000-0 -17889-3 0  9999
2 39084  98.2139 207.8946 0001309  70.1497 289.9885 14.57100922386091
